{
  "type": "FeatureCollection",
  "features": [
    {
      "type": "Feature",
      "properties": {
        "norad_id": 65731,
        "name": "1998-067XK",
        "group": "stations",
        "lat": -33.30550879008804,
        "lon": -79.97032066946308,
        "alt_km": 368.2105746710913,
        "timestamp": "2025-12-26T05:31:11.252489+00:00",
        "meta_object_name": "1998-067XK",
        "meta_object_id": "1998-067XK",
        "meta_epoch": "2025-12-25T10:12:53.157600",
        "meta_mean_motion": 15.68190108,
        "meta_eccentricity": 0.0005001,
        "meta_inclination": 51.6286,
        "meta_ra_of_asc_node": 72.7563,
        "meta_arg_of_pericenter": 324.4841,
        "meta_mean_anomaly": 35.5822,
        "meta_ephemeris_type": 0,
        "meta_classification_type": "U",
        "meta_norad_cat_id": 65731,
        "meta_element_set_no": 999,
        "meta_rev_at_epoch": 1513,
        "meta_bstar": 0.00091133,
        "meta_mean_motion_dot": 0.00104664,
        "meta_mean_motion_ddot": 0,
        "tle_line1": "1 65731U 98067XK  25359.42561525  .00104664  00000+0  91133-3 0  9996",
        "tle_line2": "2 65731  51.6286  72.7563 0005001 324.4841  35.5822 15.68190108 15138"
      },
      "geometry": {
        "type": "Point",
        "coordinates": [
          -79.97032066946308,
          -33.30550879008804
        ]
      }
    },
    {
      "type": "Feature",
      "properties": {
        "norad_id": 65732,
        "name": "RSP-03",
        "group": "stations",
        "lat": -1.6846413417791015,
        "lon": 66.27837291728778,
        "alt_km": 350.0106212361925,
        "timestamp": "2025-12-26T05:31:11.252502+00:00",
        "meta_object_name": "RSP-03",
        "meta_object_id": "1998-067XL",
        "meta_epoch": "2025-12-25T06:38:37.432032",
        "meta_mean_motion": 15.71873826,
        "meta_eccentricity": 0.0006046,
        "meta_inclination": 51.626,
        "meta_ra_of_asc_node": 72.4976,
        "meta_arg_of_pericenter": 331.0295,
        "meta_mean_anomaly": 29.0366,
        "meta_ephemeris_type": 0,
        "meta_classification_type": "U",
        "meta_norad_cat_id": 65732,
        "meta_element_set_no": 999,
        "meta_rev_at_epoch": 1513,
        "meta_bstar": 0.0010911,
        "meta_mean_motion_dot": 0.00147046,
        "meta_mean_motion_ddot": 0,
        "tle_line1": "1 65732U 98067XL  25359.27682213  .00147046  00000+0  10911-2 0  9993",
        "tle_line2": "2 65732  51.6260  72.4976 0006046 331.0295  29.0366 15.71873826 15133"
      },
      "geometry": {
        "type": "Point",
        "coordinates": [
          66.27837291728778,
          -1.6846413417791015
        ]
      }
    },
    {
      "type": "Feature",
      "properties": {
        "norad_id": 65733,
        "name": "GHS-01",
        "group": "stations",
        "lat": -50.63010896374689,
        "lon": -9.425225486123749,
        "alt_km": 330.6923370223176,
        "timestamp": "2025-12-26T05:31:11.252512+00:00",
        "meta_object_name": "GHS-01",
        "meta_object_id": "1998-067XM",
        "meta_epoch": "2025-12-25T11:39:15.872832",
        "meta_mean_motion": 15.80737686,
        "meta_eccentricity": 0.0009282,
        "meta_inclination": 51.6282,
        "meta_ra_of_asc_node": 69.3856,
        "meta_arg_of_pericenter": 357.4612,
        "meta_mean_anomaly": 2.6342,
        "meta_ephemeris_type": 0,
        "meta_classification_type": "U",
        "meta_norad_cat_id": 65733,
        "meta_element_set_no": 999,
        "meta_rev_at_epoch": 1519,
        "meta_bstar": 0.0014102,
        "meta_mean_motion_dot": 0.0028642,
        "meta_mean_motion_ddot": 0,
        "tle_line1": "1 65733U 98067XM  25359.48560038  .00286420  00000+0  14102-2 0  9993",
        "tle_line2": "2 65733  51.6282  69.3856 0009282 357.4612   2.6342 15.80737686 15190"
      },
      "geometry": {
        "type": "Point",
        "coordinates": [
          -9.425225486123749,
          -50.63010896374689
        ]
      }
    },
    {
      "type": "Feature",
      "properties": {
        "norad_id": 65941,
        "name": "YOTSUBA-KULOVER",
        "group": "stations",
        "lat": 16.21891580697872,
        "lon": 85.40838508418118,
        "alt_km": 380.8090946947286,
        "timestamp": "2025-12-26T05:31:11.252523+00:00",
        "meta_object_name": "YOTSUBA-KULOVER",
        "meta_object_id": "1998-067XN",
        "meta_epoch": "2025-12-25T07:55:23.883456",
        "meta_mean_motion": 15.61141246,
        "meta_eccentricity": 0.00024963,
        "meta_inclination": 51.6289,
        "meta_ra_of_asc_node": 76.6197,
        "meta_arg_of_pericenter": 359.01,
        "meta_mean_anomaly": 1.0889,
        "meta_ephemeris_type": 0,
        "meta_classification_type": "U",
        "meta_norad_cat_id": 65941,
        "meta_element_set_no": 999,
        "meta_rev_at_epoch": 1182,
        "meta_bstar": 0.00081019067,
        "meta_mean_motion_dot": 0.00069861,
        "meta_mean_motion_ddot": 0,
        "tle_line1": "1 65941U 98067XN  25359.33013754  .00069861  00000+0  81019-3 0  9996",
        "tle_line2": "2 65941  51.6289  76.6197 0002496 359.0100   1.0889 15.61141246 11822"
      },
      "geometry": {
        "type": "Point",
        "coordinates": [
          85.40838508418118,
          16.21891580697872
        ]
      }
    },
    {
      "type": "Feature",
      "properties": {
        "norad_id": 65942,
        "name": "BOTAN",
        "group": "stations",
        "lat": -0.5902031250092874,
        "lon": -108.53422370871881,
        "alt_km": 374.11957343496306,
        "timestamp": "2025-12-26T05:31:11.252535+00:00",
        "meta_object_name": "BOTAN",
        "meta_object_id": "1998-067XP",
        "meta_epoch": "2025-12-25T11:54:02.710944",
        "meta_mean_motion": 15.65573117,
        "meta_eccentricity": 0.00034448,
        "meta_inclination": 51.6278,
        "meta_ra_of_asc_node": 74.724,
        "meta_arg_of_pericenter": 339.5705,
        "meta_mean_anomaly": 20.5152,
        "meta_ephemeris_type": 0,
        "meta_classification_type": "U",
        "meta_norad_cat_id": 65942,
        "meta_element_set_no": 999,
        "meta_rev_at_epoch": 1186,
        "meta_bstar": 0.0011099214,
        "meta_mean_motion_dot": 0.0011485,
        "meta_mean_motion_ddot": 0,
        "tle_line1": "1 65942U 98067XP  25359.49586471  .00114850  00000+0  11099-2 0  9994",
        "tle_line2": "2 65942  51.6278  74.7240 0003444 339.5705  20.5152 15.65573117 11860"
      },
      "geometry": {
        "type": "Point",
        "coordinates": [
          -108.53422370871881,
          -0.5902031250092874
        ]
      }
    },
    {
      "type": "Feature",
      "properties": {
        "norad_id": 65943,
        "name": "E-KAGAKU-1",
        "group": "stations",
        "lat": 15.858405454419,
        "lon": 85.0974336326274,
        "alt_km": 381.7882768065947,
        "timestamp": "2025-12-26T05:31:11.252546+00:00",
        "meta_object_name": "E-KAGAKU-1",
        "meta_object_id": "1998-067XQ",
        "meta_epoch": "2025-12-25T10:59:52.984032",
        "meta_mean_motion": 15.61171734,
        "meta_eccentricity": 0.00014574,
        "meta_inclination": 51.631,
        "meta_ra_of_asc_node": 75.9814,
        "meta_arg_of_pericenter": 327.9549,
        "meta_mean_anomaly": 32.1355,
        "meta_ephemeris_type": 0,
        "meta_classification_type": "U",
        "meta_norad_cat_id": 65943,
        "meta_element_set_no": 999,
        "meta_rev_at_epoch": 1184,
        "meta_bstar": 0.00081459816,
        "meta_mean_motion_dot": 0.00070327,
        "meta_mean_motion_ddot": 0,
        "tle_line1": "1 65943U 98067XQ  25359.45825213  .00070327  00000+0  81460-3 0  9991",
        "tle_line2": "2 65943  51.6310  75.9814 0001457 327.9549  32.1355 15.61171734 11844"
      },
      "geometry": {
        "type": "Point",
        "coordinates": [
          85.0974336326274,
          15.858405454419
        ]
      }
    },
    {
      "type": "Feature",
      "properties": {
        "norad_id": 66052,
        "name": "HRC MONOBLOCK CAMERA",
        "group": "stations",
        "lat": 51.36029245055395,
        "lon": 156.54329848583455,
        "alt_km": 396.19120677670253,
        "timestamp": "2025-12-26T05:31:11.252556+00:00",
        "meta_object_name": "HRC MONOBLOCK CAMERA",
        "meta_object_id": "1998-067XR",
        "meta_epoch": "2025-12-25T15:16:26.141088",
        "meta_mean_motion": 15.55029528,
        "meta_eccentricity": 0.0002034,
        "meta_inclination": 51.6301,
        "meta_ra_of_asc_node": 77.1613,
        "meta_arg_of_pericenter": 247.8155,
        "meta_mean_anomaly": 112.262,
        "meta_ephemeris_type": 0,
        "meta_classification_type": "U",
        "meta_norad_cat_id": 66052,
        "meta_element_set_no": 999,
        "meta_rev_at_epoch": 1084,
        "meta_bstar": 0.00054388,
        "meta_mean_motion_dot": 0.000369,
        "meta_mean_motion_ddot": 0,
        "tle_line1": "1 66052U 98067XR  25359.63641367  .00036900  00000+0  54388-3 0  9997",
        "tle_line2": "2 66052  51.6301  77.1613 0002034 247.8155 112.2620 15.55029528 10842"
      },
      "geometry": {
        "type": "Point",
        "coordinates": [
          156.54329848583455,
          51.36029245055395
        ]
      }
    }
  ]
}